[
    {
        "CCSDS_OMM_VERS": "3.0",
        "COMMENT": "GENERATED VIA SPACE-TRACK.ORG API",
        "CREATION_DATE": "2025-04-14T03:05:54",
        "ORIGINATOR": "18 SPCS",
        "OBJECT_NAME": "COSMOS 2569 (GLONASS)",
        "OBJECT_ID": "2023-114A",
        "CENTER_NAME": "EARTH",
        "REF_FRAME": "TEME",
        "TIME_SYSTEM": "UTC",
        "MEAN_ELEMENT_THEORY": "SGP4",
        "EPOCH": "2025-04-13T09:56:16.087776",
        "MEAN_MOTION": "2.13103977",
        "ECCENTRICITY": "0.00128610",
        "INCLINATION": "65.0635",
        "RA_OF_ASC_NODE": "87.1398",
        "ARG_OF_PERICENTER": "294.8494",
        "MEAN_ANOMALY": "65.0063",
        "EPHEMERIS_TYPE": "0",
        "CLASSIFICATION_TYPE": "U",
        "NORAD_CAT_ID": "57517",
        "ELEMENT_SET_NO": "999",
        "REV_AT_EPOCH": "1310",
        "BSTAR": "0.00000000000000",
        "MEAN_MOTION_DOT": "0.00000020",
        "MEAN_MOTION_DDOT": "0.0000000000000",
        "SEMIMAJOR_AXIS": "25507.867",
        "PERIOD": "675.726",
        "APOAPSIS": "19162.537",
        "PERIAPSIS": "19096.926",
        "OBJECT_TYPE": "PAYLOAD",
        "RCS_SIZE": "LARGE",
        "COUNTRY_CODE": "CIS",
        "LAUNCH_DATE": "2023-08-07",
        "SITE": "PKMTR",
        "DECAY_DATE": null,
        "FILE": "4701263",
        "GP_ID": "285546448",
        "TLE_LINE0": "0 COSMOS 2569 (GLONASS)",
        "TLE_LINE1": "1 57517U 23114A   25103.41407509  .00000020  00000-0  00000-0 0  9999",
        "TLE_LINE2": "2 57517  65.0635  87.1398 0012861 294.8494  65.0063  2.13103977 13104"
    }
]